STARLINK-37359          
1 69188U 26114G   26162.76691748  .00142106  00000+0  80674-3 0  9992
2 69188  53.1595 229.4899 0001175  97.9539 262.1616 15.78110132  3917
STARLINK-37440          
1 69189U 26114H   26162.78831080  .00215896  00000+0  10676-2 0  9991
2 69189  53.1596 228.8909 0001439  49.3196 310.7952 15.80925776  3922
STARLINK-37282          
1 69190U 26114J   26162.91668981 -.00106986  00000+0 -61928-3 0  9994
2 69190  53.1594 228.6663 0000901  73.8789  94.2556 15.78082439  3965
STARLINK-37422          
1 69191U 26114K   26162.75236654  .00114164  00000+0  57325-3 0  9996
2 69191  53.1586 229.3927 0001020  85.0874 275.0265 15.80914115  3910
STARLINK-37424          
1 69192U 26114L   26162.63391069  .00183675  00000+0  10368-2 0  9994
2 69192  53.1596 230.0793 0000811  39.2526 320.8554 15.78104375  3897
STARLINK-36666          
1 69193U 26114M   26162.91668981  .00009826  00000+0  53302-4 0  9998
2 69193  53.1587 228.5719 0001142  84.0215 130.5822 15.80857949  3966
STARLINK-37355          
1 69194U 26114N   26162.75183535  .00234103  00000+0  11528-2 0  9998
2 69194  53.1583 229.3892 0001201  91.3780 268.7380 15.80966813  3917
STARLINK-37166          
1 69195U 26114P   26162.81355690  .00152443  00000+0  76040-3 0  9996
2 69195  53.1583 229.0629 0001001  87.0572 273.0565 15.80928135  3922
STARLINK-36933          
1 69196U 26114Q   26162.75108888  .00186061  00000+0  92346-3 0  9995
2 69196  53.1585 229.3837 0001457  52.6739 307.4416 15.80933612  3919
STARLINK-37419          
1 69197U 26114R   26162.74958985  .00216662  00000+0  10708-2 0  9998
2 69197  53.1582 229.3733 0001314  65.4047 294.7112 15.80936443  3914
STARLINK-37321          
1 69198U 26114S   26162.62239758  .00111860  00000+0  56172-3 0  9996
2 69198  53.1588 230.0024 0001116  47.8924 312.2194 15.80920820  3896
STARLINK-37406          
1 69199U 26114T   26162.62164964  .00233079  00000+0  11492-2 0  9995
2 69199  53.1582 229.9977 0001133  69.1960 290.9184 15.80941103  3899
STARLINK-37761          
1 69200U 26114U   26162.74733564  .00268547  00000+0  13164-2 0  9995
2 69200  53.1580 229.3584 0001162  51.3523 308.7603 15.80970057  3915
STARLINK-37754          
1 69201U 26114V   26162.74639122  .00141951  00000+0  71015-3 0  9990
2 69201  53.1578 229.3513 0001237 100.2885 259.8278 15.80897849  3914
STARLINK-37649          
1 69202U 26114W   26162.74583631  .00093733  00000+0  47265-3 0  9998
2 69202  53.1583 229.3498 0001002  78.8789 281.2347 15.80902656  3915
STARLINK-37604          
1 69203U 26114X   26162.80829919  .00156577  00000+0  78011-3 0  9997
2 69203  53.1579 229.0257 0001103 158.1530 201.9540 15.80940291  3921
STARLINK-37669          
1 69204U 26114Y   26162.80755375  .00138466  00000+0  69210-3 0  9990
2 69204  53.1581 229.0216 0001087  63.2702 296.8432 15.80928664  3921
STARLINK-37691          
1 69205U 26114Z   26162.62242881  .00193413  00000+0  10897-2 0  9993
2 69205  53.1589 230.0010 0000655 113.8343 246.2748 15.78116952  3898
STARLINK-37671          
1 69206U 26114AA  26162.74282754  .00225621  00000+0  11117-2 0  9993
2 69206  53.1582 229.3282 0001142 163.4187 196.6873 15.80977654  3910
STARLINK-37647          
1 69207U 26114AB  26162.74358553  .00348064  00000+0  16873-2 0  9996
2 69207  53.1582 229.3336 0001071  48.7520 311.3595 15.80996369  3919
STARLINK-37562          
1 69208U 26114AC  26162.91668981 -.00090039  00000+0 -51949-3 0  9997
2 69208  53.1594 228.4716 0001134  88.1308 174.5923 15.78084077  3967
STARLINK-37682          
1 69209U 26114AD  26162.67736410  .00209167  00000+0  10341-2 0  9996
2 69209  53.1582 229.6300 0001084 100.4329 259.6816 15.80951642  3906
STARLINK-37402          
1 69210U 26114AE  26162.67661437  .00305905  00000+0  14914-2 0  9991
2 69210  53.1582 229.6248 0001577  45.7940 314.3212 15.80986071  3909
STARLINK-37613          
1 69211U 26115A   26162.91668981 -.03101615  00000+0 -58479-1 0  9991
2 69211  97.2841 179.9813 0002274  52.6260  29.9868 15.52700837  3841
STARLINK-37713          
1 69212U 26115B   26162.91668981 -.00695322  00000+0 -75153-2 0  9991
2 69212  97.2837 180.0601 0001276  78.7378 194.0727 15.65680665  3843
STARLINK-37716          
1 69213U 26115C   26162.91668981 -.02560827  00000+0 -21838-1 0  9995
2 69213  97.2841 180.0873 0001333  85.2599 248.9183 15.72729337  3845
STARLINK-37620          
1 69214U 26115D   26162.91668981  .00109288  00000+0  19895-2 0  9993
2 69214  97.2848 179.9446 0000689  52.6724 313.4437 15.49100939  3842
STARLINK-37700          
1 69215U 26115E   26162.91668981  .00127173  00000+0  23087-2 0  9995
2 69215  97.2842 179.8589 0001303  91.1680  63.2593 15.49110472  3843
STARLINK-37766          
1 69216U 26115F   26162.91668981 -.00738939  00000+0 -53588-2 0  9995
2 69216  97.2844 180.0983 0001263  77.2159 284.9579 15.75350575  3844
STARLINK-37763          
1 69217U 26115G   26162.91668981 -.02346799  00000+0 -21185-1 0  9994
2 69217  97.2841 180.0832 0001167  86.9718 241.6393 15.71676251  3848
