OBJECT_NAME,OBJECT_ID,EPOCH,MEAN_MOTION,ECCENTRICITY,INCLINATION,RA_OF_ASC_NODE,ARG_OF_PERICENTER,MEAN_ANOMALY,EPHEMERIS_TYPE,CLASSIFICATION_TYPE,NORAD_CAT_ID,ELEMENT_SET_NO,REV_AT_EPOCH,BSTAR,MEAN_MOTION_DOT,MEAN_MOTION_DDOT
STARLINK-37359,2026-114G,2026-06-11T18:24:21.670272,15.78110132,.00011755,53.1595,229.4899,97.9539,262.1616,0,U,69188,999,391,.80673563E-3,.142106E-2,0
STARLINK-37440,2026-114H,2026-06-11T18:55:10.053120,15.80925776,.00014391,53.1596,228.8909,49.3196,310.7952,0,U,69189,999,392,.10676467E-2,.215896E-2,0
STARLINK-37282,2026-114J,2026-06-11T22:00:01.999584,15.78082439,.00009011,53.1594,228.6663,73.8789,94.2556,0,U,69190,999,396,-.61928249E-3,-.106986E-2,0
STARLINK-37422,2026-114K,2026-06-11T18:03:24.469056,15.80914115,.00010209,53.1586,229.3927,85.0874,275.0265,0,U,69191,999,391,.5732481E-3,.114164E-2,0
STARLINK-37424,2026-114L,2026-06-11T15:12:49.883616,15.78104375,.00008119,53.1596,230.0793,39.2526,320.8554,0,U,69192,999,389,.1036792E-2,.183675E-2,0
STARLINK-36666,2026-114M,2026-06-11T22:00:01.999584,15.80857949,.00011425,53.1587,228.5719,84.0215,130.5822,0,U,69193,999,396,.53302122E-4,.9826E-4,0
STARLINK-37355,2026-114N,2026-06-11T18:02:38.574240,15.80966813,.0001201,53.1583,229.3892,91.3780,268.7380,0,U,69194,999,391,.11527598E-2,.234103E-2,0
STARLINK-37166,2026-114P,2026-06-11T19:31:31.316160,15.80928135,.00010016,53.1583,229.0629,87.0572,273.0565,0,U,69195,999,392,.76039697E-3,.152443E-2,0
STARLINK-36933,2026-114Q,2026-06-11T18:01:34.079232,15.80933612,.00014578,53.1585,229.3837,52.6739,307.4416,0,U,69196,999,391,.92345641E-3,.186061E-2,0
STARLINK-37419,2026-114R,2026-06-11T17:59:24.563040,15.80936443,.00013144,53.1582,229.3733,65.4047,294.7112,0,U,69197,999,391,.10708033E-2,.216662E-2,0
STARLINK-37321,2026-114S,2026-06-11T14:56:15.150912,15.80920820,.00011169,53.1588,230.0024,47.8924,312.2194,0,U,69198,999,389,.56172282E-3,.11186E-2,0
STARLINK-37406,2026-114T,2026-06-11T14:55:10.528896,15.80941103,.00011339,53.1582,229.9977,69.1960,290.9184,0,U,69199,999,389,.11492256E-2,.233079E-2,0
STARLINK-37761,2026-114U,2026-06-11T17:56:09.799296,15.80970057,.00011628,53.1580,229.3584,51.3523,308.7603,0,U,69200,999,391,.13163515E-2,.268547E-2,0
STARLINK-37754,2026-114V,2026-06-11T17:54:48.201408,15.80897849,.00012373,53.1578,229.3513,100.2885,259.8278,0,U,69201,999,391,.71015192E-3,.141951E-2,0
STARLINK-37649,2026-114W,2026-06-11T17:54:00.257184,15.80902656,.00010025,53.1583,229.3498,78.8789,281.2347,0,U,69202,999,391,.47265242E-3,.93733E-3,0
STARLINK-37604,2026-114X,2026-06-11T19:23:57.050016,15.80940291,.00011036,53.1579,229.0257,158.1530,201.9540,0,U,69203,999,392,.78011102E-3,.156577E-2,0
STARLINK-37669,2026-114Y,2026-06-11T19:22:52.644000,15.80928664,.00010876,53.1581,229.0216,63.2702,296.8432,0,U,69204,999,392,.69210431E-3,.138466E-2,0
STARLINK-37691,2026-114Z,2026-06-11T14:56:17.849184,15.78116952,.00006558,53.1589,230.0010,113.8343,246.2748,0,U,69205,999,389,.10896911E-2,.193413E-2,0
STARLINK-37671,2026-114AA,2026-06-11T17:49:40.299456,15.80977654,.0001142,53.1582,229.3282,163.4187,196.6873,0,U,69206,999,391,.11116642E-2,.225621E-2,0
STARLINK-37647,2026-114AB,2026-06-11T17:50:45.789792,15.80996369,.00010716,53.1582,229.3336,48.7520,311.3595,0,U,69207,999,391,.16872539E-2,.348064E-2,0
STARLINK-37562,2026-114AC,2026-06-11T22:00:01.999584,15.78084077,.00011349,53.1594,228.4716,88.1308,174.5923,0,U,69208,999,396,-.51948897E-3,-.90039E-3,0
STARLINK-37682,2026-114AD,2026-06-11T16:15:24.258240,15.80951642,.00010847,53.1582,229.6300,100.4329,259.6816,0,U,69209,999,390,.10340621E-2,.209167E-2,0
STARLINK-37402,2026-114AE,2026-06-11T16:14:19.481568,15.80986071,.00015776,53.1582,229.6248,45.7940,314.3212,0,U,69210,999,390,.14913712E-2,.305905E-2,0
STARLINK-37613,2026-115A,2026-06-11T22:00:01.999584,15.52700837,.00022746,97.2841,179.9813,52.6260,29.9868,0,U,69211,999,384,-.58478838E-1,-.3101615E-1,0
STARLINK-37713,2026-115B,2026-06-11T22:00:01.999584,15.65680665,.00012769,97.2837,180.0601,78.7378,194.0727,0,U,69212,999,384,-.75153096E-2,-.695322E-2,0
STARLINK-37716,2026-115C,2026-06-11T22:00:01.999584,15.72729337,.00013338,97.2841,180.0873,85.2599,248.9183,0,U,69213,999,384,-.2183796E-1,-.2560827E-1,0
STARLINK-37620,2026-115D,2026-06-11T22:00:01.999584,15.49100939,.00006897,97.2848,179.9446,52.6724,313.4437,0,U,69214,999,384,.19894663E-2,.109288E-2,0
STARLINK-37700,2026-115E,2026-06-11T22:00:01.999584,15.49110472,.0001303,97.2842,179.8589,91.1680,63.2593,0,U,69215,999,384,.23087275E-2,.127173E-2,0
STARLINK-37766,2026-115F,2026-06-11T22:00:01.999584,15.75350575,.00012637,97.2844,180.0983,77.2159,284.9579,0,U,69216,999,384,-.53588409E-2,-.738939E-2,0
STARLINK-37763,2026-115G,2026-06-11T22:00:01.999584,15.71676251,.0001167,97.2841,180.0832,86.9718,241.6393,0,U,69217,999,384,-.21184657E-1,-.2346799E-1,0
